{
  "norad_id": 67372,
  "name": "ICEYE-X63",
  "history": [
    {
      "epoch": "2026-05-03T13:44:52.518048Z",
      "apogee_km": 605.3597667671038,
      "perigee_km": 601.6539102176321,
      "latitude_deg": 4.544950759867687e-06,
      "longitude_deg": 55.221490758008684,
      "height_km": 606.1360016382065,
      "semi_major_axis_km": 6981.643838492368,
      "eccentricity": 0.0002654,
      "inclination_deg": 97.8007,
      "raan_deg": 122.9149,
      "arg_perigee_deg": 282.7756,
      "mean_anomaly_deg": 77.3164,
      "mean_motion_rev_day": 14.88216883
    },
    {
      "epoch": "2026-05-04T17:10:48.412704Z",
      "apogee_km": 605.3303482625724,
      "perigee_km": 601.663594100909,
      "latitude_deg": 1.5988253177645315e-05,
      "longitude_deg": 3.7369908236639486,
      "height_km": 606.3165224997547,
      "semi_major_axis_km": 6981.633971181741,
      "eccentricity": 0.0002626,
      "inclination_deg": 97.8007,
      "raan_deg": 124.0399,
      "arg_perigee_deg": 276.8737,
      "mean_anomaly_deg": 83.2181,
      "mean_motion_rev_day": 14.88220038
    },
    {
      "epoch": "2026-05-05T12:32:38.304384Z",
      "apogee_km": 605.3121275058702,
      "perigee_km": 601.664926330609,
      "latitude_deg": 3.7666961319439554e-05,
      "longitude_deg": 73.27795741590451,
      "height_km": 606.44451865946,
      "semi_major_axis_km": 6981.625526918239,
      "eccentricity": 0.0002612,
      "inclination_deg": 97.8007,
      "raan_deg": 124.834,
      "arg_perigee_deg": 272.6091,
      "mean_anomaly_deg": 87.4827,
      "mean_motion_rev_day": 14.88222738
    },
    {
      "epoch": "2026-05-06T20:49:01.288992Z",
      "apogee_km": 605.3016528208909,
      "perigee_km": 601.6572490335075,
      "latitude_deg": -5.9135675057258846e-05,
      "longitude_deg": -50.81971086348866,
      "height_km": 606.6674254190065,
      "semi_major_axis_km": 6981.6164509271985,
      "eccentricity": 0.000261,
      "inclination_deg": 97.8007,
      "raan_deg": 126.1575,
      "arg_perigee_deg": 265.3124,
      "mean_anomaly_deg": 94.7794,
      "mean_motion_rev_day": 14.8822564
    },
    {
      "epoch": "2026-05-07T17:47:40.142976Z",
      "apogee_km": 605.3250719300322,
      "perigee_km": 601.6234216469838,
      "latitude_deg": 1.4708787671127238e-05,
      "longitude_deg": -5.482829240414241,
      "height_km": 606.8099120439034,
      "semi_major_axis_km": 6981.611246788508,
      "eccentricity": 0.0002651,
      "inclination_deg": 97.8006,
      "raan_deg": 127.0178,
      "arg_perigee_deg": 260.7797,
      "mean_anomaly_deg": 99.312,
      "mean_motion_rev_day": 14.88227304
    },
    {
      "epoch": "2026-05-08T21:13:35.406048Z",
      "apogee_km": 605.3296636622208,
      "perigee_km": 601.6056757314045,
      "latitude_deg": -1.3829404237057614e-05,
      "longitude_deg": -56.96488446659174,
      "height_km": 607.0018374829033,
      "semi_major_axis_km": 6981.604669696812,
      "eccentricity": 0.0002667,
      "inclination_deg": 97.8004,
      "raan_deg": 128.1426,
      "arg_perigee_deg": 254.581,
      "mean_anomaly_deg": 105.5112,
      "mean_motion_rev_day": 14.88229407
    },
    {
      "epoch": "2026-05-09T18:12:14.082048Z",
      "apogee_km": 605.347827400783,
      "perigee_km": 601.5819513416554,
      "latitude_deg": -8.369298830828907e-05,
      "longitude_deg": -11.627238382719488,
      "height_km": 607.1390513739893,
      "semi_major_axis_km": 6981.601889371219,
      "eccentricity": 0.0002697,
      "inclination_deg": 97.8005,
      "raan_deg": 129.0029,
      "arg_perigee_deg": 250.2895,
      "mean_anomaly_deg": 109.803,
      "mean_motion_rev_day": 14.88230296
    },
    {
      "epoch": "2026-05-10T13:34:03.566784Z",
      "apogee_km": 605.3553065459519,
      "perigee_km": 601.5670913631984,
      "latitude_deg": -9.402706845464278e-05,
      "longitude_deg": 57.91533479700322,
      "height_km": 607.2859910763417,
      "semi_major_axis_km": 6981.598198954574,
      "eccentricity": 0.0002713,
      "inclination_deg": 97.8004,
      "raan_deg": 129.7969,
      "arg_perigee_deg": 245.4916,
      "mean_anomaly_deg": 114.6017,
      "mean_motion_rev_day": 14.88231476
    }
  ]
}